{"type": "FeatureCollection", "features": [ {"type": "Feature", "properties": {"norad_id": 45358, "name": "COSMOS 2545 (760)", "group": "glo-ops", "lat": 29.599675703472055, "lon": 123.34440108141135, "alt_km": 19132.878974085987, "timestamp": "2025-12-08T21:31:04.929018+00:00", "meta": {"OBJECT_NAME": "COSMOS 2545 (760)", "OBJECT_ID": "2020-018A", "EPOCH": "2025-12-08T05:39:23.945184", "MEAN_MOTION": 2.13102399, "ECCENTRICITY": 0.00117209, "INCLINATION": 64.4721, "RA_OF_ASC_NODE": 319.1277, "ARG_OF_PERICENTER": 249.0945, "MEAN_ANOMALY": 110.7745, "EPHEMERIS_TYPE": 0, "CLASSIFICATION_TYPE": "U", "NORAD_CAT_ID": 45358, "ELEMENT_SET_NO": 999, "REV_AT_EPOCH": 4459, "BSTAR": 0, "MEAN_MOTION_DOT": -5e-07, "MEAN_MOTION_DDOT": 0}, "tle": {"line1": "1 45358U 20018A   25342.23569381 -.00000050  00000+0  00000+0 0  9993", "line2": "2 45358  64.4721 319.1277 0011720 249.0945 110.7745  2.13102399 44592"}}, "geometry": {"type": "Point", "coordinates": [123.34440108141135, 29.599675703472055]}}, {"type": "Feature", "properties": {"norad_id": 46805, "name": "COSMOS 2547 (705K)", "group": "glo-ops", "lat": 2.472882843400911, "lon": -159.9951389985643, "alt_km": 19141.29025279054, "timestamp": "2025-12-08T21:31:04.929029+00:00", "meta": {"OBJECT_NAME": "COSMOS 2547 (705K)", "OBJECT_ID": "2020-075A", "EPOCH": "2025-12-07T22:54:27.999936", "MEAN_MOTION": 2.13099949, "ECCENTRICITY": 0.00062185, "INCLINATION": 64.596, "RA_OF_ASC_NODE": 198.8564, "ARG_OF_PERICENTER": 228.8188, "MEAN_ANOMALY": 131.2072, "EPHEMERIS_TYPE": 0, "CLASSIFICATION_TYPE": "U", "NORAD_CAT_ID": 46805, "ELEMENT_SET_NO": 999, "REV_AT_EPOCH": 3983, "BSTAR": 0, "MEAN_MOTION_DOT": 5.3e-07, "MEAN_MOTION_DDOT": 0}, "tle": {"line1": "1 46805U 20075A   25341.95449074  .00000053  00000+0  00000+0 0  9990", "line2": "2 46805  64.5960 198.8564 0006218 228.8188 131.2072  2.13099949 39835"}}, "geometry": {"type": "Point", "coordinates": [-159.9951389985643, 2.472882843400911]}}, {"type": "Feature", "properties": {"norad_id": 52984, "name": "COSMOS 2557 (706K)", "group": "glo-ops", "lat": -48.17945020019422, "lon": 173.54673363788507, "alt_km": 19109.195523906274, "timestamp": "2025-12-08T21:31:04.929040+00:00", "meta": {"OBJECT_NAME": "COSMOS 2557 (706K)", "OBJECT_ID": "2022-075A", "EPOCH": "2025-12-07T04:21:00.419904", "MEAN_MOTION": 2.13101754, "ECCENTRICITY": 0.00137049, "INCLINATION": 64.4129, "RA_OF_ASC_NODE": 321.247, "ARG_OF_PERICENTER": 276.9, "MEAN_ANOMALY": 82.939, "EPHEMERIS_TYPE": 0, "CLASSIFICATION_TYPE": "U", "NORAD_CAT_ID": 52984, "ELEMENT_SET_NO": 999, "REV_AT_EPOCH": 2662, "BSTAR": 0, "MEAN_MOTION_DOT": -5.2e-07, "MEAN_MOTION_DDOT": 0}, "tle": {"line1": "1 52984U 22075A   25341.18125486 -.00000052  00000+0  00000+0 0  9990", "line2": "2 52984  64.4129 321.2470 0013704 276.9000  82.9390  2.13101754 26625"}}, "geometry": {"type": "Point", "coordinates": [173.54673363788507, -48.17945020019422]}}, {"type": "Feature", "properties": {"norad_id": 54031, "name": "COSMOS 2559 (707K)", "group": "glo-ops", "lat": 13.166332381455291, "lon": -32.29334347377154, "alt_km": 19159.12351169182, "timestamp": "2025-12-08T21:31:04.929052+00:00", "meta": {"OBJECT_NAME": "COSMOS 2559 (707K)", "OBJECT_ID": "2022-130A", "EPOCH": "2025-12-07T22:32:04.492896", "MEAN_MOTION": 2.1310126, "ECCENTRICITY": 0.00119368, "INCLINATION": 64.385, "RA_OF_ASC_NODE": 321.31, "ARG_OF_PERICENTER": 192.6499, "MEAN_ANOMALY": 167.316, "EPHEMERIS_TYPE": 0, "CLASSIFICATION_TYPE": "U", "NORAD_CAT_ID": 54031, "ELEMENT_SET_NO": 999, "REV_AT_EPOCH": 2461, "BSTAR": 0, "MEAN_MOTION_DOT": -5.2e-07, "MEAN_MOTION_DDOT": 0}, "tle": {"line1": "1 54031U 22130A   25341.93894089 -.00000052  00000+0  00000+0 0  9992", "line2": "2 54031  64.3850 321.3100 0011936 192.6499 167.3160  2.13101260 24614"}}, "geometry": {"type": "Point", "coordinates": [-32.29334347377154, 13.166332381455291]}}, {"type": "Feature", "properties": {"norad_id": 54377, "name": "COSMOS 2564 (761)", "group": "glo-ops", "lat": 40.51114540465192, "lon": -4.765397582597419, "alt_km": 19118.241099420455, "timestamp": "2025-12-08T21:31:04.929062+00:00", "meta": {"OBJECT_NAME": "COSMOS 2564 (761)", "OBJECT_ID": "2022-161A", "EPOCH": "2025-12-06T20:16:19.958016", "MEAN_MOTION": 2.13101987, "ECCENTRICITY": 0.0008674, "INCLINATION": 64.7378, "RA_OF_ASC_NODE": 199.0949, "ARG_OF_PERICENTER": 205.6872, "MEAN_ANOMALY": 154.3558, "EPHEMERIS_TYPE": 0, "CLASSIFICATION_TYPE": "U", "NORAD_CAT_ID": 54377, "ELEMENT_SET_NO": 999, "REV_AT_EPOCH": 2353, "BSTAR": 0, "MEAN_MOTION_DOT": 6.7e-07, "MEAN_MOTION_DDOT": 0}, "tle": {"line1": "1 54377U 22161A   25340.84467544  .00000067  00000+0  00000+0 0  9995", "line2": "2 54377  64.7378 199.0949 0008674 205.6872 154.3558  2.13101987 23535"}}, "geometry": {"type": "Point", "coordinates": [-4.765397582597419, 40.51114540465192]}}, {"type": "Feature", "properties": {"norad_id": 57517, "name": "COSMOS 2569 (703K)", "group": "glo-ops", "lat": 48.98814112706814, "lon": -133.02380965863853, "alt_km": 19149.420265670815, "timestamp": "2025-12-08T21:31:04.929073+00:00", "meta": {"OBJECT_NAME": "COSMOS 2569 (703K)", "OBJECT_ID": "2023-114A", "EPOCH": "2025-12-07T19:07:05.045952", "MEAN_MOTION": 2.13103857, "ECCENTRICITY": 0.00103488, "INCLINATION": 65.1916, "RA_OF_ASC_NODE": 79.0806, "ARG_OF_PERICENTER": 287.0317, "MEAN_ANOMALY": 72.8691, "EPHEMERIS_TYPE": 0, "CLASSIFICATION_TYPE": "U", "NORAD_CAT_ID": 57517, "ELEMENT_SET_NO": 999, "REV_AT_EPOCH": 1818, "BSTAR": 0, "MEAN_MOTION_DOT": -1.2e-07, "MEAN_MOTION_DDOT": 0}, "tle": {"line1": "1 57517U 23114A   25341.79658618 -.00000012  00000+0  00000+0 0  9993", "line2": "2 57517  65.1916  79.0806 0010348 287.0317  72.8691  2.13103857 18180"}}, "geometry": {"type": "Point", "coordinates": [-133.02380965863853, 48.98814112706814]}}, {"type": "Feature", "properties": {"norad_id": 63130, "name": "COSMOS 2584 (704K)", "group": "glo-ops", "lat": -27.73196360857, "lon": -86.52244005181228, "alt_km": 19114.3381817719, "timestamp": "2025-12-08T21:31:04.929084+00:00", "meta": {"OBJECT_NAME": "COSMOS 2584 (704K)", "OBJECT_ID": "2025-042A", "EPOCH": "2025-12-08T03:39:29.178720", "MEAN_MOTION": 2.13102925, "ECCENTRICITY": 0.0007602, "INCLINATION": 64.9737, "RA_OF_ASC_NODE": 79.3022, "ARG_OF_PERICENTER": 215.9611, "MEAN_ANOMALY": 144.0025, "EPHEMERIS_TYPE": 0, "CLASSIFICATION_TYPE": "U", "NORAD_CAT_ID": 63130, "ELEMENT_SET_NO": 999, "REV_AT_EPOCH": 597, "BSTAR": 0, "MEAN_MOTION_DOT": -1.2e-07, "MEAN_MOTION_DDOT": 0}, "tle": {"line1": "1 63130U 25042A   25342.15242105 -.00000012  00000+0  00000+0 0  9994", "line2": "2 63130  64.9737  79.3022 0007602 215.9611 144.0025  2.13102925  5976"}}, "geometry": {"type": "Point", "coordinates": [-86.52244005181228, -27.73196360857]}}, {"type": "Feature", "properties": {"norad_id": 65590, "name": "COSMOS 2596 (708K)", "group": "glo-ops", "lat": -27.35285117651761, "lon": -52.5345908371536, "alt_km": 19101.22334469574, "timestamp": "2025-12-08T21:31:04.929095+00:00", "meta": {"OBJECT_NAME": "COSMOS 2596 (708K)", "OBJECT_ID": "2025-206B", "EPOCH": "2025-12-08T14:54:31.099392", "MEAN_MOTION": 2.13100258, "ECCENTRICITY": 0.00139967, "INCLINATION": 64.7466, "RA_OF_ASC_NODE": 321.6168, "ARG_OF_PERICENTER": 305.3279, "MEAN_ANOMALY": 172.7961, "EPHEMERIS_TYPE": 0, "CLASSIFICATION_TYPE": "U", "NORAD_CAT_ID": 65590, "ELEMENT_SET_NO": 999, "REV_AT_EPOCH": 185, "BSTAR": 0, "MEAN_MOTION_DOT": -5.1e-07, "MEAN_MOTION_DDOT": 0}, "tle": {"line1": "1 65590U 25206B   25342.62119328 -.00000051  00000+0  00000+0 0  9993", "line2": "2 65590  64.7466 321.6168 0013996 305.3279 172.7961  2.13100258  1853"}}, "geometry": {"type": "Point", "coordinates": [-52.5345908371536, -27.35285117651761]}}]}